NORAD_CAT_ID,OBJECT_NAME,OBJECT_TYPE,EPOCH,MEAN_MOTION,ECCENTRICITY,INCLINATION,RA_OF_ASC_NODE,ARG_OF_PERICENTER,MEAN_ANOMALY,BSTAR,MEAN_MOTION_DOT,MEAN_MOTION_DDOT,TLE_LINE0,TLE_LINE1,TLE_LINE2,SEMIMAJOR_AXIS,PERIOD,APOGEE,PERIGEE,DECAYED
53723.0,STARLINK-4705,PAYLOAD,2023-07-10 17:58:16,15.08850962,9.11e-05,53.2171,301.7465,86.7567,273.3529,0.00021643,3.159e-05,0.0,0 STARLINK-4705,1 53723U 22107Z   23191.74879852  .00003159  00000-0  21643-3 0  9995,2 53723  53.2171 301.7465 0000911  86.7567 273.3529 15.08850962 47070,6917.847,95.437,540.342,539.082,0.0
53723.0,STARLINK-4705,PAYLOAD,2023-07-11 19:24:26,15.08847405,9.48e-05,53.2167,296.9855,84.0816,276.0285,7.5375e-05,9.12e-06,0.0,0 STARLINK-4705,1 53723U 22107Z   23192.80863876  .00000912  00000-0  75375-4 0  9998,2 53723  53.2167 296.9855 0000948  84.0816 276.0285 15.08847405 47236,6917.858,95.437,540.379,539.067,0.0
53723.0,STARLINK-4705,PAYLOAD,2023-07-13 12:44:28,15.08836868,8.25e-05,53.2156,289.2594,84.4178,275.6908,-0.00014416,-2.581e-05,0.0,0 STARLINK-4705,1 53723U 22107Z   23194.53088533 -.00002581  00000-0 -14416-3 0  9993,2 53723  53.2156 289.2594 0000825  84.4178 275.6908 15.08836868 47494,6917.89,95.438,540.326,539.184,0.0
53723.0,STARLINK-4705,PAYLOAD,2023-07-14 10:59:52,15.08846705,9.78e-05,53.217,285.0948,81.272,278.8383,8.1097e-05,1.003e-05,0.0,0 STARLINK-4705,1 53723U 22107Z   23195.45824112  .00001003  00000-0  81097-4 0  9992,2 53723  53.2170 285.0948 0000978  81.2720 278.8383 15.08846705 47633,6917.86,95.437,540.401,539.048,0.0
53723.0,STARLINK-4705,PAYLOAD,2023-07-15 09:15:16,15.08841215,0.0001473,53.2153,280.9271,106.4195,253.6959,0.0001172,1.578e-05,0.0,0 STARLINK-4705,1 53723U 22107Z   23196.38560437  .00001578  00000-0  11720-3 0  9994,2 53723  53.2153 280.9271 0001473 106.4195 253.6959 15.08841215 47770,6917.877,95.437,540.761,538.723,0.0
53723.0,STARLINK-4705,PAYLOAD,2023-07-15 17:12:11,15.08851482,0.0001021,53.2165,279.4444,73.2985,286.8119,0.00027141,4.036e-05,0.0,0 STARLINK-4705,1 53723U 22107Z   23196.71679981  .00004036  00000-0  27141-3 0  9992,2 53723  53.2165 279.4444 0001021  73.2985 286.8119 15.08851482 47824,6917.845,95.437,540.417,539.004,0.0
53723.0,STARLINK-4705,PAYLOAD,2023-07-16 05:55:17,15.08832432,0.0001341,53.2161,277.067,97.9111,262.2034,-6.4092e-05,-1.308e-05,0.0,0 STARLINK-4705,1 53723U 22107Z   23197.24673167 -.00001308  00000-0 -64092-4 0  9999,2 53723  53.2161 277.0670 0001341  97.9111 262.2034 15.08832432 47901,6917.904,95.438,540.696,538.841,0.0
53723.0,STARLINK-4705,PAYLOAD,2023-07-16 21:49:08,15.08837199,0.0001016,53.2166,274.0927,79.5633,280.5474,5.4096e-05,5.73e-06,0.0,0 STARLINK-4705,1 53723U 22107Z   23197.90913033  .00000573  00000-0  54096-4 0  9995,2 53723  53.2166 274.0927 0001016  79.5633 280.5474 15.08837199 48000,6917.889,95.438,540.457,539.051,0.0
53723.0,STARLINK-4705,PAYLOAD,2023-07-17 15:18:22,15.08864692,9.24e-05,53.2158,270.8213,79.7368,280.3728,0.001011,0.0001585,0.0,0 STARLINK-4705,1 53723U 22107Z   23198.63776617  .00015850  00000-0  10110-2 0  9992,2 53723  53.2158 270.8213 0000924  79.7368 280.3728 15.08864692 48117,6917.805,95.436,540.309,539.031,0.0
53723.0,STARLINK-4705,PAYLOAD,2023-07-17 21:39:55,15.08848405,0.0001573,53.2164,269.6316,85.1921,274.9251,0.00032292,4.856e-05,0.0,0 STARLINK-4705,1 53723U 22107Z   23198.90272973  .00004856  00000-0  32292-3 0  9998,2 53723  53.2164 269.6316 0001573  85.1921 274.9251 15.08848405 48159,6917.855,95.437,540.808,538.632,0.0
53723.0,STARLINK-4705,PAYLOAD,2023-07-18 16:44:33,15.08849821,0.0001395,53.2161,266.062,86.5485,273.5667,0.00027312,4.063e-05,0.0,0 STARLINK-4705,1 53723U 22107Z   23199.69760555  .00004063  00000-0  27312-3 0  9990,2 53723  53.2161 266.0620 0001395  86.5485 273.5667 15.08849821 48279,6917.85,95.437,540.68,538.75,0.0
53723.0,STARLINK-4705,PAYLOAD,2023-07-19 10:13:48,15.08831879,0.0001222,53.2154,262.7924,65.6294,294.4826,-5.6271e-05,-1.183e-05,0.0,0 STARLINK-4705,1 53723U 22107Z   23200.42625462 -.00001183  00000-0 -56271-4 0  9990,2 53723  53.2154 262.7924 0001222  65.6294 294.4826 15.08831879 48381,6917.905,95.438,540.616,538.925,0.0
53723.0,STARLINK-4705,PAYLOAD,2023-07-20 16:26:07,15.08850699,0.0001284,53.2155,257.1406,72.8786,287.2347,0.00059927,9.265e-05,0.0,0 STARLINK-4705,1 53723U 22107Z   23201.68481424  .00009265  00000-0  59927-3 0  9994,2 53723  53.2155 257.1406 0001284  72.8786 287.2347 15.08850699 48579,6917.848,95.437,540.601,538.824,0.0
53723.0,STARLINK-4705,PAYLOAD,2023-07-21 14:41:31,15.08844052,0.0001377,53.2156,252.9765,71.2645,288.8497,0.00020521,2.98e-05,0.0,0 STARLINK-4705,1 53723U 22107Z   23202.61217528  .00002980  00000-0  20521-3 0  9995,2 53723  53.2156 252.9765 0001377  71.2645 288.8497 15.08844052 48716,6917.868,95.437,540.686,538.78,0.0
53723.0,STARLINK-4705,PAYLOAD,2023-07-24 03:06:11,15.08831498,0.0001334,53.216,241.6787,90.1193,269.9952,0.00018017,2.58e-05,0.0,0 STARLINK-4705,1 53723U 22107Z   23205.12930096  .00002580  00000-0  18017-3 0  9999,2 53723  53.2160 241.6787 0001334  90.1193 269.9952 15.08831498 49695,6917.906,95.438,540.694,538.849,0.0
53723.0,STARLINK-4705,PAYLOAD,2023-07-25 12:29:17,15.08837636,0.0001271,53.2164,235.4338,90.3439,269.7699,6.3893e-05,7.29e-06,0.0,0 STARLINK-4705,1 53723U 22107Z   23206.52034100  .00000729  00000-0  63893-4 0  9991,2 53723  53.2164 235.4338 0001271  90.3439 269.7699 15.08837636 49907,6917.888,95.438,540.632,538.873,0.0
53723.0,STARLINK-4705,PAYLOAD,2023-07-26 10:44:41,15.08839658,0.0001075,53.2161,231.2711,85.6731,274.4384,7.4052e-05,8.91e-06,0.0,0 STARLINK-4705,1 53723U 22107Z   23207.44770130  .00000891  00000-0  74052-4 0  9992,2 53723  53.2161 231.2711 0001075  85.6731 274.4384 15.08839658 50044,6917.881,95.438,540.49,539.003,0.0
53723.0,STARLINK-4705,PAYLOAD,2023-07-27 04:13:55,15.08844488,9.82e-05,53.2156,227.9997,89.1136,270.9968,0.00010599,1.4e-05,0.0,0 STARLINK-4705,1 53723U 22107Z   23208.17633725  .00001400  00000-0  10599-3 0  9993,2 53723  53.2156 227.9997 0000982  89.1136 270.9968 15.08844488 49550,6917.867,95.437,540.411,539.052,0.0
53723.0,STARLINK-4705,PAYLOAD,2023-07-27 10:35:27,15.0884676,0.0001011,53.2155,226.8104,87.0052,273.1056,0.00011766,1.586e-05,0.0,0 STARLINK-4705,1 53723U 22107Z   23208.44129496  .00001586  00000-0  11766-3 0  9990,2 53723  53.2155 226.8104 0001011  87.0052 273.1056 15.08846760 50195,6917.86,95.437,540.424,539.025,0.0
53723.0,STARLINK-4705,PAYLOAD,2023-07-27 18:32:23,15.08841478,0.000106,53.2155,225.3238,83.4192,276.6921,6.0962e-05,6.83e-06,0.0,0 STARLINK-4705,1 53723U 22107Z   23208.77249938  .00000683  00000-0  60962-4 0  9990,2 53723  53.2155 225.3238 0001060  83.4192 276.6921 15.08841478 50242,6917.876,95.437,540.474,539.008,0.0
53723.0,STARLINK-4705,PAYLOAD,2023-07-28 00:53:56,15.08838236,0.0001081,53.2154,224.1345,85.2167,274.8949,5.1664e-05,5.34e-06,0.0,0 STARLINK-4705,1 53723U 22107Z   23209.03746190  .00000534  00000-0  51664-4 0  9996,2 53723  53.2154 224.1345 0001081  85.2167 274.8949 15.08838236 49686,6917.886,95.438,540.499,539.003,0.0
53723.0,STARLINK-4705,PAYLOAD,2023-07-28 10:26:15,15.08837285,0.0001091,53.2154,222.3501,85.9811,274.1306,5.1924e-05,5.39e-06,0.0,0 STARLINK-4705,1 53723U 22107Z   23209.43490302  .00000539  00000-0  51924-4 0  9995,2 53723  53.2154 222.3501 0001091  85.9811 274.1306 15.08837285 50342,6917.889,95.438,540.508,538.999,0.0
53723.0,STARLINK-4705,PAYLOAD,2023-07-29 10:17:02,15.08841883,0.0001111,53.2154,217.8897,84.8478,275.2641,2.0851e-05,4.4e-07,0.0,0 STARLINK-4705,1 53723U 22107Z   23210.42850073  .00000044  00000-0  20851-4 0  9997,2 53723  53.2154 217.8897 0001111  84.8478 275.2641 15.08841883 49890,6917.875,95.437,540.508,538.971,0.0
53723.0,STARLINK-4705,PAYLOAD,2023-07-30 11:43:12,15.08840948,0.0001057,53.2156,213.1311,88.3286,271.7828,9.6968e-05,1.256e-05,0.0,0 STARLINK-4705,1 53723U 22107Z   23211.48833991  .00001256  00000-0  96968-4 0  9992,2 53723  53.2156 213.1311 0001057  88.3286 271.7828 15.08840948 50056,6917.877,95.437,540.474,539.011,0.0
53723.0,STARLINK-4705,PAYLOAD,2023-08-01 00:17:05,15.08838051,0.000106,53.2157,206.2909,86.5065,273.6048,4.4463e-05,4.2e-06,0.0,0 STARLINK-4705,1 53723U 22107Z   23213.01186448  .00000420  00000-0  44463-4 0  9996,2 53723  53.2157 206.2909 0001060  86.5065 273.6048 15.08838051 50284,6917.886,95.438,540.485,539.018,0.0
53723.0,STARLINK-4705,PAYLOAD,2023-08-02 08:04:47,15.08839749,0.0001083,53.2157,200.3445,87.3565,272.7551,5.1706e-05,5.35e-06,0.0,0 STARLINK-4705,1 53723U 22107Z   23214.33666514  .00000535  00000-0  51706-4 0  9994,2 53723  53.2157 200.3445 0001083  87.3565 272.7551 15.08839749 50489,6917.881,95.438,540.495,538.997,0.0
53723.0,STARLINK-4705,PAYLOAD,2023-08-03 11:06:21,15.08841536,0.0001151,53.2156,195.289,88.0349,272.0775,7.9947e-05,9.85e-06,0.0,0 STARLINK-4705,1 53723U 22107Z   23215.46274551  .00000985  00000-0  79947-4 0  9991,2 53723  53.2156 195.2890 0001151  88.0349 272.0775 15.08841536 50655,6917.876,95.437,540.537,538.944,0.0
53723.0,STARLINK-4705,PAYLOAD,2023-08-04 03:00:13,15.08832056,0.0001308,53.2152,192.3151,85.2759,274.8383,-4.4594e-06,-3.59e-06,0.0,0 STARLINK-4705,1 53723U 22107Z   23216.12515711 -.00000359  00000-0 -44594-5 0  9999,2 53723  53.2152 192.3151 0001308  85.2759 274.8383 15.08832056 50750,6917.905,95.438,540.675,538.865,0.0
53723.0,STARLINK-4705,PAYLOAD,2023-08-04 15:43:18,15.08839804,0.0001198,53.2162,189.937,84.8515,275.2614,4.2417e-05,3.87e-06,0.0,0 STARLINK-4705,1 53723U 22107Z   23216.65507188  .00000387  00000-0  42417-4 0  9996,2 53723  53.2162 189.9370 0001198  84.8515 275.2614 15.08839804 50837,6917.881,95.438,540.575,538.917,0.0
53723.0,STARLINK-4705,PAYLOAD,2023-08-05 02:50:59,15.08845803,0.0001238,53.2161,187.855,79.2678,280.8454,0.00011928,1.611e-05,0.0,0 STARLINK-4705,1 53723U 22107Z   23217.11874554  .00001611  00000-0  11928-3 0  9995,2 53723  53.2161 187.8550 0001238  79.2678 280.8454 15.08845803 50904,6917.863,95.437,540.584,538.871,0.0
